STARLINK-36644          
1 67821U 26033A   26077.25002315 -.01845302  00000+0 -31816-1 0  9992
2 67821  42.9998 219.9249 0001246 273.9528 286.7612 15.53648489  6047
STARLINK-36643          
1 67822U 26033B   26077.25002315  .00078950  00000+0  13414-2 0  9992
2 67822  43.0000 220.2088 0002351 264.0304 180.6181 15.50507931  6047
STARLINK-36646          
1 67823U 26033C   26077.25002315 -.01925135  00000+0 -34563-1 0  9999
2 67823  42.9998 219.9975 0001352 278.9850 251.4430 15.52143453  6043
STARLINK-36647          
1 67824U 26033D   26077.25002315  .00071722  00000+0  12198-2 0  9992
2 67824  43.0000 220.1088 0001739 269.0631 215.7606 15.50518282  6048
STARLINK-36648          
1 67825U 26033E   26077.25002315 -.01878009  00000+0 -24923-1 0  9997
2 67825  43.0000 219.5095 0001626 265.9653 101.2080 15.60624178  6041
STARLINK-35865          
1 67826U 26033F   26077.25002315 -.01878741  00000+0 -31921-1 0  9997
2 67826  42.9998 219.8411 0001328 269.3760 323.8575 15.54109604  6043
STARLINK-36289          
1 67827U 26033G   26077.25002315  .00080597  00000+0  13682-2 0  9994
2 67827  43.0000 220.1063 0002033 270.5196 215.5930 15.50524298  6047
STARLINK-36670          
1 67828U 26033H   26077.25002315 -.01229389  00000+0 -22338-1 0  9999
2 67828  43.0000 219.9702 0001937 285.9068 254.7923 15.51449545  6043
STARLINK-36144          
1 67829U 26033J   26077.25002315  .00088898  00000+0  15079-2 0  9990
2 67829  43.0002 220.0331 0002269 263.7745 251.4439 15.50505609  6041
STARLINK-36611          
1 67830U 26033K   26077.25002315 -.02110681  00000+0 -37319-1 0  9992
2 67830  42.9996 219.8839 0001560 265.5905 310.3758 15.52861412  6041
STARLINK-36661          
1 67831U 26033L   26077.25002315  .00068815  00000+0  11707-2 0  9994
2 67831  43.0002 220.2359 0001644 273.6737 159.2333 15.50525908  6045
STARLINK-36662          
1 67832U 26033M   26077.25002315 -.00451564  00000+0 -28824-2 0  9992
2 67832  42.9999 217.9683 0001352 270.4639 349.7138 15.76659655  6048
